[{"OBJECT_NAME":"STARLINK-30146","OBJECT_ID":"2023-105N","EPOCH":"2026-03-09T22:00:01.999584","MEAN_MOTION":15.24370985,"ECCENTRICITY":9.65e-5,"INCLINATION":42.9993,"RA_OF_ASC_NODE":258.5873,"ARG_OF_PERICENTER":307.2589,"MEAN_ANOMALY":147.706,"EPHEMERIS_TYPE":0,"CLASSIFICATION_TYPE":"U","NORAD_CAT_ID":57442,"ELEMENT_SET_NO":999,"REV_AT_EPOCH":578,"BSTAR":0.033241649,"MEAN_MOTION_DOT":0.00895133,"MEAN_MOTION_DDOT":0},{"OBJECT_NAME":"OBJECT AU","OBJECT_ID":"2024-199AU","EPOCH":"2026-03-09T22:39:39.982464","MEAN_MOTION":15.41914594,"ECCENTRICITY":0.0013813,"INCLINATION":97.3147,"RA_OF_ASC_NODE":301.0833,"ARG_OF_PERICENTER":281.8371,"MEAN_ANOMALY":78.1327,"EPHEMERIS_TYPE":0,"CLASSIFICATION_TYPE":"U","NORAD_CAT_ID":61777,"ELEMENT_SET_NO":999,"REV_AT_EPOCH":11887,"BSTAR":0.00048321732,"MEAN_MOTION_DOT":0.00020549,"MEAN_MOTION_DDOT":0}]
